GLOBAL-31               
1 63027U 25033B   26204.18517107  .00013215  00000+0  35255-3 0  9999
2 63027  58.9971 170.6973 0012723  60.8530 299.3818 15.38441750 79867
GLOBAL-32               
1 64231U 25118B   26204.05414028  .00012241  00000+0  32016-3 0  9995
2 64231  58.9923 347.3832 0014945  67.3445 292.9210 15.39091394 63767
GLOBAL-33               
1 66554U 25267A   26204.03853272  .00011273  00000+0  30756-3 0  9999
2 66554  42.0178 207.5982 0008717 153.5432 206.5854 15.37343068 37560
GLOBAL-34               
1 68098U 26043A   26203.79584448  .00012498  00000+0  38807-3 0  9990
2 68098  42.0224  14.7898 0002995 203.9818 156.0881 15.33225349 21290
