{"fetched_at":"2026-07-23T17:55:30.981Z","source":"https://celestrak.org/NORAD/elements/gp.php?NAME=GLOBAL&FORMAT=JSON","constellation":"blacksky-gen3","records":[{"OBJECT_NAME":"GLOBAL-31","OBJECT_ID":"2025-033B","EPOCH":"2026-07-23T04:26:38.780448","CLASSIFICATION_TYPE":"U","MEAN_MOTION":15.3844175,"ECCENTRICITY":0.0012723,"INCLINATION":58.9971,"RA_OF_ASC_NODE":170.6973,"ARG_OF_PERICENTER":60.853,"MEAN_ANOMALY":299.3818,"EPHEMERIS_TYPE":0,"NORAD_CAT_ID":63027,"ELEMENT_SET_NO":999,"REV_AT_EPOCH":7986,"BSTAR":0.00035255023,"MEAN_MOTION_DOT":0.00013215,"MEAN_MOTION_DDOT":0},{"OBJECT_NAME":"GLOBAL-32","OBJECT_ID":"2025-118B","EPOCH":"2026-07-23T01:17:57.720192","CLASSIFICATION_TYPE":"U","MEAN_MOTION":15.39091394,"ECCENTRICITY":0.00149452,"INCLINATION":58.9923,"RA_OF_ASC_NODE":347.3832,"ARG_OF_PERICENTER":67.3445,"MEAN_ANOMALY":292.921,"EPHEMERIS_TYPE":0,"NORAD_CAT_ID":64231,"ELEMENT_SET_NO":999,"REV_AT_EPOCH":6376,"BSTAR":0.0003201567,"MEAN_MOTION_DOT":0.00012241,"MEAN_MOTION_DDOT":0},{"OBJECT_NAME":"GLOBAL-33","OBJECT_ID":"2025-267A","EPOCH":"2026-07-23T00:55:29.227008","CLASSIFICATION_TYPE":"U","MEAN_MOTION":15.37343068,"ECCENTRICITY":0.00087178,"INCLINATION":42.0178,"RA_OF_ASC_NODE":207.5982,"ARG_OF_PERICENTER":153.5432,"MEAN_ANOMALY":206.5854,"EPHEMERIS_TYPE":0,"NORAD_CAT_ID":66554,"ELEMENT_SET_NO":999,"REV_AT_EPOCH":3756,"BSTAR":0.00030756069,"MEAN_MOTION_DOT":0.00011273,"MEAN_MOTION_DDOT":0},{"OBJECT_NAME":"GLOBAL-34","OBJECT_ID":"2026-043A","EPOCH":"2026-07-22T19:06:00.963072","CLASSIFICATION_TYPE":"U","MEAN_MOTION":15.33225349,"ECCENTRICITY":0.00029954,"INCLINATION":42.0224,"RA_OF_ASC_NODE":14.7898,"ARG_OF_PERICENTER":203.9818,"MEAN_ANOMALY":156.0881,"EPHEMERIS_TYPE":0,"NORAD_CAT_ID":68098,"ELEMENT_SET_NO":999,"REV_AT_EPOCH":2129,"BSTAR":0.00038806536,"MEAN_MOTION_DOT":0.00012498,"MEAN_MOTION_DDOT":0}]}
